start=new Date('2023-05-07T00:00:00.000Z').valueOf();
sats=[{"OBJECT_NAME":"STARLINK-5743","MEAN_ELEMENT_THEORY":"SGP4","MEAN_MOTION":"15.02579477","EPOCH":"2023-05-06T13:26:32.814528","EPHEMERIS_TYPE":"0","OBJECT_TYPE":"PAYLOAD","CLASSIFICATION_TYPE":"U","SITE":"AFETR","PERIOD":"95.835","RCS_SIZE":"LARGE","RA_OF_ASC_NODE":"232.9295","APOAPSIS":"559.905","DECAY_DATE":null,"BSTAR":"-0.00062936000000","SEMIMAJOR_AXIS":"6937.083","LAUNCH_DATE":"2023-02-12","OBJECT_ID":"2023-020AE","MEAN_ANOMALY":"119.0606","MEAN_MOTION_DDOT":"0.0000000000000","FILE":"3902298","TLE_LINE1":"1 55597U 23020AE  23126.56010202 -.00008705  00000-0 -62936-3 0  9999","TIME_SYSTEM":"UTC","REF_FRAME":"TEME","REV_AT_EPOCH":"1290","CENTER_NAME":"EARTH","TLE_LINE2":"2 55597  43.0012 232.9295 0001380 241.0098 119.0606 15.02579477 12903","PERIAPSIS":"557.990","ARG_OF_PERICENTER":"241.0098","COUNTRY_CODE":"US","GP_ID":"231355468","ELEMENT_SET_NO":"999","ECCENTRICITY":"0.00013800","NORAD_CAT_ID":"55597","INCLINATION":"43.0012","MEAN_MOTION_DOT":"-0.00008705"},{"SITE":"AFETR","PERIOD":"95.838","CLASSIFICATION_TYPE":"U","EPHEMERIS_TYPE":"0","OBJECT_TYPE":"PAYLOAD","OBJECT_NAME":"STARLINK-5756","MEAN_ELEMENT_THEORY":"SGP4","MEAN_MOTION":"15.02539138","EPOCH":"2023-05-06T15:18:15.329952","MEAN_ANOMALY":"92.8378","OBJECT_ID":"2023-020AF","SEMIMAJOR_AXIS":"6937.207","LAUNCH_DATE":"2023-02-12","BSTAR":"0.00009961100000","DECAY_DATE":null,"RA_OF_ASC_NODE":"232.6158","RCS_SIZE":"LARGE","APOAPSIS":"560.168","ARG_OF_PERICENTER":"267.2284","PERIAPSIS":"557.976","TLE_LINE2":"2 55598  43.0004 232.6158 0001580 267.2284  92.8378 15.02539138 12914","CENTER_NAME":"EARTH","REF_FRAME":"TEME","REV_AT_EPOCH":"1291","TLE_LINE1":"1 55598U 23020AF  23126.63767743  .00001142  00000-0  99611-4 0  9994","TIME_SYSTEM":"UTC","FILE":"3902298","MEAN_MOTION_DDOT":"0.0000000000000","MEAN_MOTION_DOT":"0.00001142","NORAD_CAT_ID":"55598","ECCENTRICITY":"0.00015800","INCLINATION":"43.0004","ELEMENT_SET_NO":"999","GP_ID":"231353723","COUNTRY_CODE":"US"},{"MEAN_MOTION_DDOT":"0.0000000000000","FILE":"3902298","TLE_LINE1":"1 55599U 23020AG  23126.50139917  .00004342  00000-0  33621-3 0  9990","TIME_SYSTEM":"UTC","REF_FRAME":"TEME","REV_AT_EPOCH":"1289","TLE_LINE2":"2 55599  42.9996 233.3137 0001120 265.2969  94.7746 15.02545553 12891","CENTER_NAME":"EARTH","ARG_OF_PERICENTER":"265.2969","PERIAPSIS":"558.275","COUNTRY_CODE":"US","GP_ID":"231353973","ELEMENT_SET_NO":"999","NORAD_CAT_ID":"55599","ECCENTRICITY":"0.00011200","INCLINATION":"42.9996","MEAN_MOTION_DOT":"0.00004342","OBJECT_NAME":"STARLINK-5761","MEAN_MOTION":"15.02545553","MEAN_ELEMENT_THEORY":"SGP4","EPOCH":"2023-05-06T12:02:00.888288","EPHEMERIS_TYPE":"0","OBJECT_TYPE":"PAYLOAD","CLASSIFICATION_TYPE":"U","PERIOD":"95.837","SITE":"AFETR","RCS_SIZE":"LARGE","RA_OF_ASC_NODE":"233.3137","APOAPSIS":"559.829","DECAY_DATE":null,"BSTAR":"0.00033621000000","SEMIMAJOR_AXIS":"6937.187","LAUNCH_DATE":"2023-02-12","OBJECT_ID":"2023-020AG","MEAN_ANOMALY":"94.7746"},{"MEAN_MOTION_DOT":"0.00000047","NORAD_CAT_ID":"55600","ECCENTRICITY":"0.00015110","INCLINATION":"43.0007","ELEMENT_SET_NO":"999","GP_ID":"231354725","COUNTRY_CODE":"US","ARG_OF_PERICENTER":"270.4413","PERIAPSIS":"558.038","CENTER_NAME":"EARTH","TLE_LINE2":"2 55600  43.0007 232.8712 0001511 270.4413  89.6256 15.02534329 12908","REF_FRAME":"TEME","REV_AT_EPOCH":"1290","TLE_LINE1":"1 55600U 23020AH  23126.55456036  .00000047  00000-0  18591-4 0  9990","TIME_SYSTEM":"UTC","FILE":"3902298","MEAN_MOTION_DDOT":"0.0000000000000","MEAN_ANOMALY":"89.6256","OBJECT_ID":"2023-020AH","SEMIMAJOR_AXIS":"6937.222","LAUNCH_DATE":"2023-02-12","BSTAR":"0.00001859100000","DECAY_DATE":null,"RCS_SIZE":"LARGE","RA_OF_ASC_NODE":"232.8712","APOAPSIS":"560.135","SITE":"AFETR","PERIOD":"95.838","CLASSIFICATION_TYPE":"U","EPHEMERIS_TYPE":"0","OBJECT_TYPE":"PAYLOAD","MEAN_MOTION":"15.02534329","MEAN_ELEMENT_THEORY":"SGP4","OBJECT_NAME":"STARLINK-5755","EPOCH":"2023-05-06T13:18:34.015104"},{"EPOCH":"2023-05-06T13:34:00.496992","OBJECT_NAME":"STARLINK-5744","MEAN_ELEMENT_THEORY":"SGP4","MEAN_MOTION":"15.02532401","OBJECT_TYPE":"PAYLOAD","EPHEMERIS_TYPE":"0","CLASSIFICATION_TYPE":"U","SITE":"AFETR","PERIOD":"95.838","APOAPSIS":"559.962","RCS_SIZE":"LARGE","RA_OF_ASC_NODE":"245.0653","DECAY_DATE":null,"BSTAR":"0.00003501800000","SEMIMAJOR_AXIS":"6937.228","LAUNCH_DATE":"2023-02-12","OBJECT_ID":"2023-020AJ","MEAN_ANOMALY":"91.9239","MEAN_MOTION_DDOT":"0.0000000000000","FILE":"3902298","TIME_SYSTEM":"UTC","TLE_LINE1":"1 55601U 23020AJ  23126.56528353  .00000269  00000-0  35018-4 0  9993","REV_AT_EPOCH":"1276","REF_FRAME":"TEME","TLE_LINE2":"2 55601  43.0011 245.0653 0001253 268.1460  91.9239 15.02532401 12763","CENTER_NAME":"EARTH","PERIAPSIS":"558.223","ARG_OF_PERICENTER":"268.1460","COUNTRY_CODE":"US","GP_ID":"231354968","ELEMENT_SET_NO":"999","INCLINATION":"43.0011","NORAD_CAT_ID":"55601","ECCENTRICITY":"0.00012530","MEAN_MOTION_DOT":"0.00000269"},{"RA_OF_ASC_NODE":"232.5762","RCS_SIZE":"LARGE","APOAPSIS":"560.177","DECAY_DATE":null,"BSTAR":"-0.00001168500000","LAUNCH_DATE":"2023-02-12","SEMIMAJOR_AXIS":"6937.196","OBJECT_ID":"2023-020AK","MEAN_ANOMALY":"66.6589","OBJECT_NAME":"STARLINK-5764","MEAN_ELEMENT_THEORY":"SGP4","MEAN_MOTION":"15.02542714","EPOCH":"2023-05-06T15:10:16.030272","EPHEMERIS_TYPE":"0","OBJECT_TYPE":"PAYLOAD","CLASSIFICATION_TYPE":"U","SITE":"AFETR","PERIOD":"95.838","COUNTRY_CODE":"US","GP_ID":"231354224","ELEMENT_SET_NO":"999","ECCENTRICITY":"0.00016090","NORAD_CAT_ID":"55602","INCLINATION":"42.9999","MEAN_MOTION_DOT":"-0.00000362","MEAN_MOTION_DDOT":"0.0000000000000","FILE":"3902298","TLE_LINE1":"1 55602U 23020AK  23126.63212998 -.00000362  00000-0 -11685-4 0  9997","TIME_SYSTEM":"UTC","REF_FRAME":"TEME","REV_AT_EPOCH":"1291","TLE_LINE2":"2 55602  42.9999 232.5762 0001609 293.4084  66.6589 15.02542714 12919","CENTER_NAME":"EARTH","PERIAPSIS":"557.945","ARG_OF_PERICENTER":"293.4084"},{"PERIOD":"95.838","SITE":"AFETR","CLASSIFICATION_TYPE":"U","OBJECT_TYPE":"PAYLOAD","EPHEMERIS_TYPE":"0","EPOCH":"2023-05-06T00:37:32.397888","OBJECT_NAME":"STARLINK-5735","MEAN_ELEMENT_THEORY":"SGP4","MEAN_MOTION":"15.02533722","MEAN_ANOMALY":"75.9172","OBJECT_ID":"2023-020AL","LAUNCH_DATE":"2023-02-12","SEMIMAJOR_AXIS":"6937.224","BSTAR":"-0.00000398990000","DECAY_DATE":null,"APOAPSIS":"559.658","RCS_SIZE":"LARGE","RA_OF_ASC_NODE":"235.7913","PERIAPSIS":"558.519","ARG_OF_PERICENTER":"284.1579","TLE_LINE2":"2 55603  42.9991 235.7913 0000821 284.1579  75.9172 15.02533722 12826","CENTER_NAME":"EARTH","REV_AT_EPOCH":"1282","REF_FRAME":"TEME","TIME_SYSTEM":"UTC","TLE_LINE1":"1 55603U 23020AL  23126.02606942 -.00000257  00000-0 -39899-5 0  9998","FILE":"3901937","MEAN_MOTION_DDOT":"0.0000000000000","MEAN_MOTION_DOT":"-0.00000257","INCLINATION":"42.9991","NORAD_CAT_ID":"55603","ECCENTRICITY":"0.00008210","ELEMENT_SET_NO":"999","GP_ID":"231294254","COUNTRY_CODE":"US"},{"INCLINATION":"43.0003","ECCENTRICITY":"0.00013890","NORAD_CAT_ID":"55604","MEAN_MOTION_DOT":"-0.00865868","ELEMENT_SET_NO":"999","COUNTRY_CODE":"US","GP_ID":"231355226","ARG_OF_PERICENTER":"276.8445","PERIAPSIS":"503.861","TLE_LINE2":"2 55604  43.0003 219.6275 0001389 276.8445 171.9304 15.20339851  1307","CENTER_NAME":"EARTH","TIME_SYSTEM":"UTC","TLE_LINE1":"1 55604U 23020AM  23126.66667824 -.00865868  00000-0 -41971-1 0  9992","REV_AT_EPOCH":"130","REF_FRAME":"TEME","MEAN_MOTION_DDOT":"0.0000000000000","FILE":"3902298","OBJECT_ID":"2023-020AM","MEAN_ANOMALY":"171.9304","BSTAR":"-0.04197100000000","LAUNCH_DATE":"2023-02-12","SEMIMAJOR_AXIS":"6882.952","APOAPSIS":"505.773","RA_OF_ASC_NODE":"219.6275","RCS_SIZE":"LARGE","DECAY_DATE":null,"PERIOD":"94.716","SITE":"AFETR","OBJECT_TYPE":"PAYLOAD","EPHEMERIS_TYPE":"0","CLASSIFICATION_TYPE":"U","EPOCH":"2023-05-06T16:00:00.999936","OBJECT_NAME":"STARLINK-5748","MEAN_ELEMENT_THEORY":"SGP4","MEAN_MOTION":"15.20339851"},{"PERIAPSIS":"558.187","ARG_OF_PERICENTER":"272.7088","CENTER_NAME":"EARTH","TLE_LINE2":"2 55605  42.9997 232.8545 0001279 272.7088  87.3607 15.02538256 12905","TLE_LINE1":"1 55605U 23020AN  23126.55233744  .00000240  00000-0  32860-4 0  9994","TIME_SYSTEM":"UTC","REF_FRAME":"TEME","REV_AT_EPOCH":"1290","MEAN_MOTION_DDOT":"0.0000000000000","FILE":"3902298","ECCENTRICITY":"0.00012790","NORAD_CAT_ID":"55605","INCLINATION":"42.9997","MEAN_MOTION_DOT":"0.00000240","ELEMENT_SET_NO":"999","COUNTRY_CODE":"US","GP_ID":"231355469","PERIOD":"95.838","SITE":"AFETR","EPHEMERIS_TYPE":"0","OBJECT_TYPE":"PAYLOAD","CLASSIFICATION_TYPE":"U","MEAN_MOTION":"15.02538256","MEAN_ELEMENT_THEORY":"SGP4","OBJECT_NAME":"STARLINK-5725","EPOCH":"2023-05-06T13:15:21.954816","OBJECT_ID":"2023-020AN","MEAN_ANOMALY":"87.3607","BSTAR":"0.00003286000000","LAUNCH_DATE":"2023-02-12","SEMIMAJOR_AXIS":"6937.210","RA_OF_ASC_NODE":"232.8545","RCS_SIZE":"LARGE","APOAPSIS":"559.962","DECAY_DATE":null},{"NORAD_CAT_ID":"55607","ECCENTRICITY":"0.00016240","INCLINATION":"43.0006","MEAN_MOTION_DOT":"0.00045728","COUNTRY_CODE":"US","GP_ID":"231274845","ELEMENT_SET_NO":"999","CENTER_NAME":"EARTH","TLE_LINE2":"2 55607  43.0006 242.1265 0001624 277.5056 163.6543 15.02515960  1301","ARG_OF_PERICENTER":"277.5056","PERIAPSIS":"558.017","MEAN_MOTION_DDOT":"0.0000000000000","FILE":"3901186","TLE_LINE1":"1 55607U 23020AQ  23124.83334491  .00045728  00000-0  33799-2 0  9996","TIME_SYSTEM":"UTC","REF_FRAME":"TEME","REV_AT_EPOCH":"130","BSTAR":"0.00337990000000","LAUNCH_DATE":"2023-02-12","SEMIMAJOR_AXIS":"6937.278","OBJECT_ID":"2023-020AQ","MEAN_ANOMALY":"163.6543","RCS_SIZE":"LARGE","RA_OF_ASC_NODE":"242.1265","APOAPSIS":"560.270","DECAY_DATE":null,"SITE":"AFETR","PERIOD":"95.839","OBJECT_NAME":"STARLINK-5700","MEAN_ELEMENT_THEORY":"SGP4","MEAN_MOTION":"15.02515960","EPOCH":"2023-05-04T20:00:01.000224","EPHEMERIS_TYPE":"0","OBJECT_TYPE":"PAYLOAD","CLASSIFICATION_TYPE":"U"}];
